{
    "links": {
        "self": "http://www.neowsapp.com/rest/v1/neo/3550886?api_key=iIulBulltgU6a56xZRHN4H3l9WmuAYTsLGpBGhQ2"
    },
    "id": "3550886",
    "neo_reference_id": "3550886",
    "name": "(2010 VB40)",
    "designation": "2010 VB40",
    "nasa_jpl_url": "http://ssd.jpl.nasa.gov/sbdb.cgi?sstr=3550886",
    "absolute_magnitude_h": 24.7,
    "estimated_diameter": {
        "kilometers": {
            "estimated_diameter_min": 0.0305179233,
            "estimated_diameter_max": 0.0682401509
        },
        "meters": {
            "estimated_diameter_min": 30.5179232594,
            "estimated_diameter_max": 68.2401509401
        },
        "miles": {
            "estimated_diameter_min": 0.0189629525,
            "estimated_diameter_max": 0.0424024508
        },
        "feet": {
            "estimated_diameter_min": 100.1244233463,
            "estimated_diameter_max": 223.8850168104
        }
    },
    "is_potentially_hazardous_asteroid": false,
    "close_approach_data": [
        {
            "close_approach_date": "2010-11-15",
            "close_approach_date_full": "2010-Nov-15 05:03",
            "epoch_date_close_approach": 1289797380000,
            "relative_velocity": {
                "kilometers_per_second": "8.0051176727",
                "kilometers_per_hour": "28818.4236217224",
                "miles_per_hour": "17906.6477220642"
            },
            "miss_distance": {
                "astronomical": "0.0914677685",
                "lunar": "35.5809619465",
                "kilometers": "13683383.341253095",
                "miles": "8502460.143938911"
            },
            "orbiting_body": "Earth"
        },
        {
            "close_approach_date": "2176-12-17",
            "close_approach_date_full": "2176-Dec-17 03:07",
            "epoch_date_close_approach": 6531073620000,
            "relative_velocity": {
                "kilometers_per_second": "8.2911781268",
                "kilometers_per_hour": "29848.2412566191",
                "miles_per_hour": "18546.5363519253"
            },
            "miss_distance": {
                "astronomical": "0.1401280934",
                "lunar": "54.5098283326",
                "kilometers": "20962864.299801058",
                "miles": "13025719.8652402804"
            },
            "orbiting_body": "Earth"
        }
    ],
    "orbital_data": {
        "orbit_id": "8",
        "orbit_determination_date": "2017-04-06 08:55:51",
        "first_observation_date": "2010-11-06",
        "last_observation_date": "2010-12-08",
        "data_arc_in_days": 32,
        "observations_used": 25,
        "orbit_uncertainty": "8",
        "minimum_orbit_intersection": ".0746721",
        "jupiter_tisserand_invariant": "2.988",
        "epoch_osculation": "2455510.5",
        "eccentricity": ".6268347625859521",
        "semi_major_axis": "2.825612782992007",
        "inclination": "3.415598203014596",
        "ascending_node_longitude": "215.3241766842278",
        "orbital_period": "1734.871836421267",
        "perihelion_distance": "1.054420465005381",
        "perihelion_argument": "213.163806490417",
        "aphelion_distance": "4.596805100978632",
        "perihelion_time": "2455527.255247160164",
        "mean_anomaly": "356.5231500961467",
        "mean_motion": ".2075081239099576",
        "equinox": "J2000",
        "orbit_class": {
            "orbit_class_type": "AMO",
            "orbit_class_description": "Near-Earth asteroid orbits similar to that of 1221 Amor",
            "orbit_class_range": "1.017 AU < q (perihelion) < 1.3 AU"
        }
    },
    "is_sentry_object": false
}